*******************************************************************************
Ephemeris / WWW_USER Mon Jul 15 19:15:49 2024 Pasadena, USA      / Horizons    
*******************************************************************************
Target body name: (2018 WV1)                      {source: JPL#17}
Center body name: Earth (399)                     {source: DE441}
Center-site name: Gemini South Obs., Cerro Pachon
*******************************************************************************
Start time      : A.D. 2018-Nov-21 23:31:00.0000 UT      
Stop  time      : A.D. 2018-Nov-22 09:26:00.0000 UT      
Step-size       : 1 minutes
*******************************************************************************
Target pole/equ : undefined
Target radii    : undefined                                                    
Center geodetic : 289.2634, -30.2406227, 2.71233  {E-lon(deg),Lat(deg),Alt(km)}
Center cylindric: 289.2634,5517.21435,-3194.81213 {E-lon(deg),Dxy(km),Dz(km)}
Center pole/equ : ITRF93                          {East-longitude positive}
Center radii    : 6378.137, 6378.137, 6356.752 km {Equator_a, b, pole_c}       
Target primary  : Sun
Vis. interferer : MOON (R_eq= 1737.400) km        {source: DE441}
Rel. light bend : Sun                             {source: DE441}
Rel. lght bnd GM: 1.3271E+11 km^3/s^2                                          
Small-body perts: Yes                             {source: SB441-N16}
Atmos refraction: NO (AIRLESS)
RA format       : HMS
Time format     : CAL 
Calendar mode   : Mixed Julian/Gregorian
RTS-only print  : NO       
EOP file        : eop.240715.p241008                                           
EOP coverage    : DATA-BASED 1962-JAN-20 TO 2024-JUL-15. PREDICTS-> 2024-OCT-07
Units conversion: 1 au= 149597870.700 km, c= 299792.458 km/s, 1 day= 86400.0 s 
Table cut-offs 1: Elevation (-90.0deg=NO ),Airmass (>38.000=NO), Daylight (YES)
Table cut-offs 2: Solar elongation (  0.0,180.0=NO ),Local Hour Angle( 0.0=NO )
Table cut-offs 3: RA/DEC angular rate (     0.0=NO )                           
*******************************************************************************
Initial IAU76/J2000 heliocentric ecliptic osculating elements (au, days, deg.):
  EPOCH=  2458458.5 ! 2018-Dec-06.00 (TDB)         Residual RMS= .12928        
   EC= .06869100257422787  QR= .9715505345748198   TP= 2458416.866413563       
   OM= 248.5061090469913   W=  141.3742304527303   IN= 1.905403987972275       
  Equivalent ICRF heliocentric cartesian coordinates (au, au/d):
   X= 2.787163119783287E-01  Y= 8.719775267121872E-01  Z= 3.748421051204766E-01
  VX=-1.676682657337402E-02 VY= 5.516972965834891E-03 VZ= 1.749720915605096E-03
Asteroid physical parameters (km, seconds, rotational period in hours):        
   GM= n.a.                RAD= n.a.               ROTPER= n.a.                
   H= 30.3                 G= .150                 B-V= n.a.                   
                           ALBEDO= n.a.            STYP= n.a.                  
*******************************************************************************
 Date__(UT)__HR:MN     R.A._________(ICRF)_________DEC
******************************************************
$$SOE
 2018-Nov-22 01:34  m  01 26 04.938572 +22 51 22.38346
 2018-Nov-22 01:35  m  01 26 04.673575 +22 51 22.78938
 2018-Nov-22 01:36  m  01 26 04.408423 +22 51 23.19045
 2018-Nov-22 01:37  m  01 26 04.143121 +22 51 23.58669
 2018-Nov-22 01:38  m  01 26 03.877672 +22 51 23.97807
 2018-Nov-22 01:39  m  01 26 03.612082 +22 51 24.36462
 2018-Nov-22 01:40  m  01 26 03.346352 +22 51 24.74630
 2018-Nov-22 01:41  m  01 26 03.080488 +22 51 25.12314
 2018-Nov-22 01:42  m  01 26 02.814494 +22 51 25.49511
 2018-Nov-22 01:43  m  01 26 02.548374 +22 51 25.86222
 2018-Nov-22 01:44  m  01 26 02.282130 +22 51 26.22447
 2018-Nov-22 01:45  m  01 26 02.015769 +22 51 26.58185
 2018-Nov-22 01:46  m  01 26 01.749293 +22 51 26.93435
 2018-Nov-22 01:47  m  01 26 01.482706 +22 51 27.28198
 2018-Nov-22 01:48  m  01 26 01.216013 +22 51 27.62474
 2018-Nov-22 01:49  m  01 26 00.949218 +22 51 27.96262
 2018-Nov-22 01:50  m  01 26 00.682324 +22 51 28.29561
 2018-Nov-22 01:51  m  01 26 00.415335 +22 51 28.62372
 2018-Nov-22 01:52  m  01 26 00.148257 +22 51 28.94694
 2018-Nov-22 01:53  m  01 25 59.881092 +22 51 29.26527
 2018-Nov-22 01:54  m  01 25 59.613844 +22 51 29.57871
 2018-Nov-22 01:55  m  01 25 59.346518 +22 51 29.88725
 2018-Nov-22 01:56  m  01 25 59.079118 +22 51 30.19090
 2018-Nov-22 01:57  m  01 25 58.811647 +22 51 30.48965
 2018-Nov-22 01:58  m  01 25 58.544111 +22 51 30.78350
 2018-Nov-22 01:59  m  01 25 58.276511 +22 51 31.07245
 2018-Nov-22 02:00  m  01 25 58.008854 +22 51 31.35650
 2018-Nov-22 02:01  m  01 25 57.741143 +22 51 31.63564
 2018-Nov-22 02:02  m  01 25 57.473381 +22 51 31.90988
 2018-Nov-22 02:03  m  01 25 57.205573 +22 51 32.17921
 2018-Nov-22 02:04  m  01 25 56.937723 +22 51 32.44363
 2018-Nov-22 02:05  m  01 25 56.669835 +22 51 32.70314
 2018-Nov-22 02:06  t  01 25 56.401913 +22 51 32.95774
 2018-Nov-22 02:07  m  01 25 56.133961 +22 51 33.20743
 2018-Nov-22 02:08  m  01 25 55.865983 +22 51 33.45220
 2018-Nov-22 02:09  m  01 25 55.597983 +22 51 33.69207
 2018-Nov-22 02:10  m  01 25 55.329966 +22 51 33.92701
 2018-Nov-22 02:11  m  01 25 55.061934 +22 51 34.15705
 2018-Nov-22 02:12  m  01 25 54.793893 +22 51 34.38217
 2018-Nov-22 02:13  m  01 25 54.525846 +22 51 34.60237
 2018-Nov-22 02:14  m  01 25 54.257797 +22 51 34.81766
 2018-Nov-22 02:15  m  01 25 53.989751 +22 51 35.02803
 2018-Nov-22 02:16  m  01 25 53.721711 +22 51 35.23348
 2018-Nov-22 02:17  m  01 25 53.453682 +22 51 35.43402
 2018-Nov-22 02:18  m  01 25 53.185667 +22 51 35.62964
 2018-Nov-22 02:19  m  01 25 52.917670 +22 51 35.82035
 2018-Nov-22 02:20  m  01 25 52.649696 +22 51 36.00614
 2018-Nov-22 02:21  m  01 25 52.381749 +22 51 36.18702
 2018-Nov-22 02:22  m  01 25 52.113833 +22 51 36.36299
 2018-Nov-22 02:23  m  01 25 51.845951 +22 51 36.53404
 2018-Nov-22 02:24  m  01 25 51.578108 +22 51 36.70017
 2018-Nov-22 02:25  m  01 25 51.310308 +22 51 36.86140
 2018-Nov-22 02:26  m  01 25 51.042555 +22 51 37.01771
 2018-Nov-22 02:27  m  01 25 50.774852 +22 51 37.16911
 2018-Nov-22 02:28  m  01 25 50.507205 +22 51 37.31560
 2018-Nov-22 02:29  m  01 25 50.239616 +22 51 37.45719
 2018-Nov-22 02:30  m  01 25 49.972091 +22 51 37.59387
 2018-Nov-22 02:31  m  01 25 49.704632 +22 51 37.72564
 2018-Nov-22 02:32  m  01 25 49.437245 +22 51 37.85251
 2018-Nov-22 02:33  m  01 25 49.169933 +22 51 37.97448
 2018-Nov-22 02:34  m  01 25 48.902700 +22 51 38.09154
 2018-Nov-22 02:35  m  01 25 48.635550 +22 51 38.20371
 2018-Nov-22 02:36  m  01 25 48.368488 +22 51 38.31098
 2018-Nov-22 02:37  m  01 25 48.101517 +22 51 38.41336
 2018-Nov-22 02:38  m  01 25 47.834641 +22 51 38.51084
 2018-Nov-22 02:39  m  01 25 47.567865 +22 51 38.60343
 2018-Nov-22 02:40  m  01 25 47.301192 +22 51 38.69113
 2018-Nov-22 02:41  m  01 25 47.034626 +22 51 38.77395
 2018-Nov-22 02:42  m  01 25 46.768172 +22 51 38.85188
 2018-Nov-22 02:43  m  01 25 46.501833 +22 51 38.92493
 2018-Nov-22 02:44  m  01 25 46.235614 +22 51 38.99311
 2018-Nov-22 02:45  m  01 25 45.969518 +22 51 39.05641
 2018-Nov-22 02:46  m  01 25 45.703550 +22 51 39.11483
 2018-Nov-22 02:47  m  01 25 45.437713 +22 51 39.16838
 2018-Nov-22 02:48  m  01 25 45.172012 +22 51 39.21707
 2018-Nov-22 02:49  m  01 25 44.906451 +22 51 39.26090
 2018-Nov-22 02:50  m  01 25 44.641033 +22 51 39.29986
 2018-Nov-22 02:51  m  01 25 44.375763 +22 51 39.33397
 2018-Nov-22 02:52  m  01 25 44.110644 +22 51 39.36322
 2018-Nov-22 02:53  m  01 25 43.845681 +22 51 39.38762
 2018-Nov-22 02:54  m  01 25 43.580877 +22 51 39.40718
 2018-Nov-22 02:55  m  01 25 43.316237 +22 51 39.42189
 2018-Nov-22 02:56  m  01 25 43.051765 +22 51 39.43176
 2018-Nov-22 02:57  m  01 25 42.787464 +22 51 39.43680
 2018-Nov-22 02:58  m  01 25 42.523339 +22 51 39.43701
 2018-Nov-22 02:59  m  01 25 42.259393 +22 51 39.43239
 2018-Nov-22 03:00  m  01 25 41.995631 +22 51 39.42295
 2018-Nov-22 03:01  m  01 25 41.732057 +22 51 39.40868
 2018-Nov-22 03:02  m  01 25 41.468674 +22 51 39.38961
 2018-Nov-22 03:03  m  01 25 41.205486 +22 51 39.36572
 2018-Nov-22 03:04  m  01 25 40.942498 +22 51 39.33703
 2018-Nov-22 03:05  m  01 25 40.679713 +22 51 39.30354
 2018-Nov-22 03:06  m  01 25 40.417135 +22 51 39.26525
 2018-Nov-22 03:07  m  01 25 40.154769 +22 51 39.22218
 2018-Nov-22 03:08  m  01 25 39.892618 +22 51 39.17431
 2018-Nov-22 03:09  m  01 25 39.630686 +22 51 39.12167
 2018-Nov-22 03:10  m  01 25 39.368978 +22 51 39.06425
 2018-Nov-22 03:11  m  01 25 39.107496 +22 51 39.00206
 2018-Nov-22 03:12  m  01 25 38.846245 +22 51 38.93510
 2018-Nov-22 03:13  m  01 25 38.585230 +22 51 38.86339
 2018-Nov-22 03:14  m  01 25 38.324453 +22 51 38.78692
 2018-Nov-22 03:15  m  01 25 38.063919 +22 51 38.70570
 2018-Nov-22 03:16  m  01 25 37.803632 +22 51 38.61974
 2018-Nov-22 03:17  m  01 25 37.543596 +22 51 38.52904
 2018-Nov-22 03:18  m  01 25 37.283814 +22 51 38.43361
 2018-Nov-22 03:19  m  01 25 37.024290 +22 51 38.33346
 2018-Nov-22 03:20  m  01 25 36.765029 +22 51 38.22859
 2018-Nov-22 03:21  m  01 25 36.506035 +22 51 38.11900
 2018-Nov-22 03:22  m  01 25 36.247310 +22 51 38.00471
 2018-Nov-22 03:23  m  01 25 35.988859 +22 51 37.88572
 2018-Nov-22 03:24  m  01 25 35.730686 +22 51 37.76203
 2018-Nov-22 03:25  m  01 25 35.472795 +22 51 37.63366
 2018-Nov-22 03:26  m  01 25 35.215190 +22 51 37.50061
 2018-Nov-22 03:27  m  01 25 34.957874 +22 51 37.36288
 2018-Nov-22 03:28  m  01 25 34.700852 +22 51 37.22049
 2018-Nov-22 03:29  m  01 25 34.444127 +22 51 37.07344
 2018-Nov-22 03:30  m  01 25 34.187703 +22 51 36.92173
 2018-Nov-22 03:31  m  01 25 33.931584 +22 51 36.76538
 2018-Nov-22 03:32  m  01 25 33.675774 +22 51 36.60439
 2018-Nov-22 03:33  m  01 25 33.420276 +22 51 36.43877
 2018-Nov-22 03:34  m  01 25 33.165095 +22 51 36.26852
 2018-Nov-22 03:35  m  01 25 32.910234 +22 51 36.09366
 2018-Nov-22 03:36  m  01 25 32.655697 +22 51 35.91420
